*******************************************************************************
 Revised: April 12, 2021                 Earth                              399
 
 GEOPHYSICAL PROPERTIES (revised May 9, 2022):
  Vol. Mean Radius (km)    = 6371.01+-0.02   Mass x10^24 (kg)= 5.97219+-0.0006
  Equ. radius, km          = 6378.137        Mass layers:
  Polar axis, km           = 6356.752          Atmos         = 5.1   x 10^18 kg
  Flattening               = 1/298.257223563   oceans        = 1.4   x 10^21 kg
  Density, g/cm^3          = 5.51              crust         = 2.6   x 10^22 kg
  J2 (IERS 2010)           = 0.00108262545     mantle        = 4.043 x 10^24 kg
  g_p, m/s^2  (polar)      = 9.8321863685      outer core    = 1.835 x 10^24 kg
  g_e, m/s^2  (equatorial) = 9.7803267715      inner core    = 9.675 x 10^22 kg
  g_o, m/s^2               = 9.82022         Fluid core rad  = 3480 km
  GM, km^3/s^2             = 398600.435436   Inner core rad  = 1215 km
  GM 1-sigma, km^3/s^2     =      0.0014     Escape velocity = 11.186 km/s
  Rot. Rate (rad/s)        = 0.00007292115   Surface area:
  Mean sidereal day, hr    = 23.9344695944     land          = 1.48 x 10^8 km
  Mean solar day 2000.0, s = 86400.002         sea           = 3.62 x 10^8 km
  Mean solar day 1820.0, s = 86400.0         Love no., k2    = 0.299
  Moment of inertia        = 0.3308          Atm. pressure   = 1.0 bar
  Mean surface temp (Ts), K= 287.6           Volume, km^3    = 1.08321 x 10^12
  Mean effect. temp (Te), K= 255             Magnetic moment = 0.61 gauss Rp^3
  Geometric albedo         = 0.367           Vis. mag. V(1,0)= -3.86
  Solar Constant (W/m^2)   = 1367.6 (mean), 1414 (perihelion), 1322 (aphelion)
 HELIOCENTRIC ORBIT CHARACTERISTICS:
  Obliquity to orbit, deg  = 23.4392911  Sidereal orb period  = 1.0000174 y
  Orbital speed, km/s      = 29.79       Sidereal orb period  = 365.25636 d
  Mean daily motion, deg/d = 0.9856474   Hill's sphere radius = 234.9       
*******************************************************************************


*******************************************************************************
Ephemeris / WWW_USER Fri Oct  7 14:43:36 2022 Pasadena, USA      / Horizons
*******************************************************************************
Target body name: Earth (399)                     {source: DE441}
Center body name: Sun (10)                        {source: DE441}
Center-site name: BODY CENTER
*******************************************************************************
Start time      : A.D. 2023-Jul-18 00:00:00.0000 TDB
Stop  time      : A.D. 2025-Feb-16 00:00:00.0000 TDB
Step-size       : 1440 minutes
*******************************************************************************
Center geodetic : 0.00000000,0.00000000,0.0000000 {E-lon(deg),Lat(deg),Alt(km)}
Center cylindric: 0.00000000,0.00000000,0.0000000 {E-lon(deg),Dxy(km),Dz(km)}
Center radii    : 696000.0 x 696000.0 x 696000.0 k{Equator, meridian, pole}    
Output units    : KM-S
Output type     : GEOMETRIC cartesian states
Output format   : 2 (position and velocity)
Reference frame : Ecliptic of J2000.0
*******************************************************************************
JDTDB
   X     Y     Z
   VX    VY    VZ
*******************************************************************************
$$SOE
2460329.500000000 = A.D. 2024-Jan-20 00:00:00.0000 TDB 
 X =-7.152138522739623E+07 Y = 1.286495507879745E+08 Z =-6.946303062759340E+03
 VX=-2.651120397282991E+01 VY=-1.459348882347396E+01 VZ= 2.127449805033876E-05
2460330.500000000 = A.D. 2024-Jan-21 00:00:00.0000 TDB 
 X =-7.380065775917526E+07 Y = 1.273688613902972E+08 Z =-6.936797042690217E+03
 VX=-2.624847727915560E+01 VY=-1.505126552136634E+01 VZ= 2.056404966914727E-04
2460331.500000000 = A.D. 2024-Jan-22 00:00:00.0000 TDB 
 X =-7.605690667094061E+07 Y = 1.260488361943869E+08 Z =-6.909742819972336E+03
 VX=-2.597826938501565E+01 VY=-1.550403908183706E+01 VZ= 4.255939487904925E-04
2460332.500000000 = A.D. 2024-Jan-23 00:00:00.0000 TDB 
 X =-7.828949025478733E+07 Y = 1.246899076836288E+08 Z =-6.862562496669590E+03
 VX=-2.570068376012873E+01 VY=-1.595180385035173E+01 VZ= 6.695678838912755E-04
2460333.500000000 = A.D. 2024-Jan-24 00:00:00.0000 TDB 
 X =-8.049777461091174E+07 Y = 1.232925090879427E+08 Z =-6.793687053129077E+03
 VX=-2.541579832413842E+01 VY=-1.639454746255870E+01 VZ= 9.258602536306171E-04
2460334.500000000 = A.D. 2024-Jan-25 00:00:00.0000 TDB 
 X =-8.268113160934229E+07 Y = 1.218570751435625E+08 Z =-6.702546976886690E+03
 VX=-2.512366939801927E+01 VY=-1.683224680341326E+01 VZ= 1.183111217283539E-03
2460335.500000000 = A.D. 2024-Jan-26 00:00:00.0000 TDB 
 X =-8.483893720643054E+07 Y = 1.203840431682142E+08 Z =-6.589524141423404E+03
 VX=-2.482433600911569E+01 VY=-1.726486477063583E+01 VZ= 1.430721990479888E-03
2460336.500000000 = A.D. 2024-Jan-27 00:00:00.0000 TDB 
 X =-8.697057015299645E+07 Y = 1.188738543717089E+08 Z =-6.455870720483363E+03
 VX=-2.451782463229322E+01 VY=-1.769234812356168E+01 VZ= 1.659193200505449E-03
2460337.500000000 = A.D. 2024-Jan-28 00:00:00.0000 TDB 
 X =-8.907541112078135E+07 Y = 1.173269552931376E+08 Z =-6.303603695310652E+03
 VX=-2.420415404825347E+01 VY=-1.811462674372277E+01 VZ= 1.860345692198173E-03
2460338.500000000 = A.D. 2024-Jan-29 00:00:00.0000 TDB 
 X =-9.115284223237608E+07 Y = 1.157437992370691E+08 Z =-6.135386305548251E+03
 VX=-2.388333971204496E+01 VY=-1.853161437802166E+01 VZ= 2.027400387738076E-03
2460339.500000000 = A.D. 2024-Jan-30 00:00:00.0000 TDB 
 X =-9.320224692361164E+07 Y = 1.141248475914762E+08 Z =-5.954408517204225E+03
 VX=-2.355539698240418E+01 VY=-1.894321054855714E+01 VZ= 2.154925597122492E-03
2460340.500000000 = A.D. 2024-Jan-31 00:00:00.0000 TDB 
 X =-9.522301001830195E+07 Y = 1.124705709530460E+08 Z =-5.764276322305202E+03
 VX=-2.322034275787551E+01 VY=-1.934930296996984E+01 VZ= 2.238695085200249E-03
2460341.500000000 = A.D. 2024-Feb-01 00:00:00.0000 TDB 
 X =-9.721451787005229E+07 Y = 1.107814500523039E+08 Z =-5.568914700239897E+03
 VX=-2.287819540645613E+01 VY=-1.974976961436439E+01 VZ= 2.275527081475381E-03
2460342.500000000 = A.D. 2024-Feb-02 00:00:00.0000 TDB 
 X =-9.917615843292284E+07 Y = 1.090579765484589E+08 Z =-5.372482258372009E+03
 VX=-2.252897326986614E+01 VY=-2.014447951252823E+01 VZ= 2.263189958411793E-03
2460343.500000000 = A.D. 2024-Feb-03 00:00:00.0000 TDB 
 X =-1.011073211649322E+08 Y = 1.073006538405077E+08 Z =-5.179287844292819E+03
 VX=-2.217269244449658E+01 VY=-2.053329144703740E+01 VZ= 2.200466232626042E-03
2460344.500000000 = A.D. 2024-Feb-04 00:00:00.0000 TDB 
 X =-1.030073967493871E+08 Y = 1.055099981067454E+08 Z =-4.993691584408283E+03
 VX=-2.180936502754731E+01 VY=-2.091604989144998E+01 VZ= 2.087462562540665E-03
2460345.500000000 = A.D. 2024-Feb-05 00:00:00.0000 TDB 
 X =-1.048757767463573E+08 Y = 1.036865398233665E+08 Z =-4.819966061003506E+03
 VX=-2.143899960109225E+01 VY=-2.129257801199569E+01 VZ= 1.926229105010613E-03
2460346.500000000 = A.D. 2024-Feb-06 00:00:00.0000 TDB 
 X =-1.067118534651922E+08 Y = 1.018308259909067E+08 Z =-4.662090448804200E+03
 VX=-2.106160628418422E+01 VY=-2.166266853595454E+01 VZ= 1.721681225927085E-03
2460347.500000000 = A.D. 2024-Feb-07 00:00:00.0000 TDB 
 X =-1.085150205586978E+08 Y = 9.994342315773374E+07 Z =-4.523456849962473E+03
 VX=-2.067720872522341E+01 VY=-2.202607504603525E+01 VZ= 1.482666542882427E-03
2460348.500000000 = A.D. 2024-Feb-08 00:00:00.0000 TDB 
 X =-1.102846749980545E+08 Y = 9.802492101044209E+07 Z =-4.406491316258907E+03
 VX=-2.028586399667316E+01 VY=-2.238250855350664E+01 VZ= 1.222785599964027E-03
2460349.500000000 = A.D. 2024-Feb-09 00:00:00.0000 TDB 
 X =-1.120202210265647E+08 Y = 9.607593580428159E+07 Z =-4.312236367687583E+03
 VX=-1.988768760531531E+01 VY=-2.273164566715405E+01 VZ= 9.603492774612477E-04
2460350.500000000 = A.D. 2024-Feb-10 00:00:00.0000 TDB 
 X =-1.137210762177682E+08 Y = 9.409711240970734E+07 Z =-4.239997060067952E+03
 VX=-1.948287539037208E+01 VY=-2.307315276104802E+01 VZ= 7.168765809115740E-04
2460351.500000000 = A.D. 2024-Feb-11 00:00:00.0000 TDB 
 X =-1.153866788687672E+08 Y = 9.208912363826674E+07 Z =-4.187186042606831E+03
 VX=-1.907171060255807E+01 VY=-2.340672355210510E+01 VZ= 5.140455154464263E-04
2460352.500000000 = A.D. 2024-Feb-12 00:00:00.0000 TDB 
 X =-1.170164950373346E+08 Y = 9.005266614281113E+07 Z =-4.149473138377070E+03
 VX=-1.865454797332887E+01 VY=-2.373211822031259E+01 VZ= 3.699006259143545E-04
2460353.500000000 = A.D. 2024-Feb-13 00:00:00.0000 TDB 
 X =-1.186100232639582E+08 Y = 8.798845345222750E+07 Z =-4.121243257664144E+03
 VX=-1.823177761482756E+01 VY=-2.404918818908634E+01 VZ= 2.957584609983854E-04
2460354.500000000 = A.D. 2024-Feb-14 00:00:00.0000 TDB 
 X =-1.201667957796912E+08 Y = 8.589720786812173E+07 Z =-4.096245908908546E+03
 VX=-1.780378260056196E+01 VY=-2.435787712546540E+01 VZ= 2.949904964157923E-04
2460355.500000000 = A.D. 2024-Feb-15 00:00:00.0000 TDB 
 X =-1.216863763626867E+08 Y = 8.377965323354118E+07 Z =-4.068259087368846E+03
 VX=-1.737090599546311E+01 VY=-2.465820123803444E+01 VZ= 3.638380010322351E-04
2460356.500000000 = A.D. 2024-Feb-16 00:00:00.0000 TDB 
 X =-1.231683560818112E+08 Y = 8.163650988794616E+07 Z =-4.031621533934027E+03
 VX=-1.693343536465827E+01 VY=-2.495022056211337E+01 VZ= 4.934678736105980E-04
2460357.500000000 = A.D. 2024-Feb-17 00:00:00.0000 TDB 
 X =-1.246123484207764E+08 Y = 7.946849206079459E+07 Z =-3.981571805309504E+03
 VX=-1.649160301821276E+01 VY=-2.523401274507826E+01 VZ= 6.722341194684844E-04
2460358.500000000 = A.D. 2024-Feb-18 00:00:00.0000 TDB 
 X =-1.260179848610441E+08 Y = 7.727630718861164E+07 Z =-3.914409556966275E+03
 VX=-1.604559513579179E+01 VY=-2.550965517610214E+01 VZ= 8.874607873323725E-04
2460359.500000000 = A.D. 2024-Feb-19 00:00:00.0000 TDB 
 X =-1.273849113896642E+08 Y = 7.506065639234835E+07 Z =-3.827532013628632E+03
 VX=-1.559556314803072E+01 VY=-2.577721571128974E+01 VZ= 1.126548772331759E-03
